1 42855U 17042AG  20193.58487660  .00003583  00000-0  83317-4 0  9992
2 42855  96.8893  60.4484 0006550 237.0343 123.0277 15.42908734167855
1 42855U 17042AG  20193.90915361  .00003855  00000-0  89496-4 0  9998
2 42855  96.8894  60.7551 0006572 235.4979 124.5650 15.42911834167907
1 42855U 17042AG  20194.49285159  .00003746  00000-0  87011-4 0  9998
2 42855  96.8894  61.3072 0006607 232.7040 127.3607 15.42914941167994
1 42855U 17042AG  20194.68741710  .00003848  00000-0  89330-4 0  9998
2 42855  96.8894  61.4912 0006630 231.9782 128.0869 15.42917095168024
1 42855U 17042AG  20195.53053307  .00003777  00000-0  87683-4 0  9991
2 42855  96.8895  62.2888 0006688 228.0282 132.0397 15.42922469168157
1 42855U 17042AG  20195.85480758  .00003804  00000-0  88302-4 0  9990
2 42855  96.8895  62.5955 0006714 226.5410 133.5281 15.42924751168201
1 42855U 17042AG  20196.11422665  .00003899  00000-0  90444-4 0  9997
2 42855  96.8895  62.8409 0006738 225.2718 134.7983 15.42926974168246
1 42855U 17042AG  20196.56820827  .00005337  00000-0  12312-3 0  9994
2 42855  96.8896  63.2703 0006779 223.2035 136.8683 15.42933894168311
1 42855U 17042AG  20196.89248103  .00004684  00000-0  10826-3 0  9993
2 42855  96.8896  63.5770 0006804 221.7202 138.3528 15.42934789168360
1 42855U 17042AG  20197.34646145  .00004246  00000-0  98299-4 0  9997
2 42855  96.8896  64.0064 0006857 219.7335 140.3413 15.42937523168437
1 42855U 17042AG  20197.60587778  .00004790  00000-0  11064-3 0  9990
2 42855  96.8896  64.2518 0006882 218.7013 141.3743 15.42941488168479
1 42855U 17042AG  20197.86529376  .00004993  00000-0  11524-3 0  9994
2 42855  96.8896  64.4972 0006912 217.5509 142.5258 15.42944557168515
1 42855U 17042AG  20198.38412533  .00004000  00000-0  92689-4 0  9999
2 42855  96.8895  64.9880 0006956 215.3352 144.7437 15.42947124168591
1 42855U 17042AG  20198.57868668  .00003901  00000-0  90434-4 0  9999
2 42855  96.8895  65.1720 0006977 214.5790 145.5006 15.42948802168626
1 42855U 17042AG  20199.42178316  .00004090  00000-0  94681-4 0  9996
2 42855  96.8893  65.9694 0007064 210.8571 149.2263 15.42956868168757
1 42855U 17042AG  20199.87575688  .00004038  00000-0  93500-4 0  9999
2 42855  96.8892  66.3988 0007112 208.9359 151.1496 15.42960549168822
1 42855U 17042AG  20200.52428911  .00003641  00000-0  84471-4 0  9996
2 42855  96.8890  67.0122 0007189 206.3338 153.7546 15.42964800168920
1 42855U 17042AG  20200.58914223  .00003627  00000-0  84136-4 0  9990
2 42855  96.8890  67.0736 0007198 206.0846 154.0042 15.42965286168937
1 42855U 17042AG  20200.91340735  .00003805  00000-0  88172-4 0  9990
2 42855  96.8889  67.3802 0007233 204.6801 155.4103 15.42968228168984
1 42855U 17042AG  20201.36737790  .00003607  00000-0  83678-4 0  9997
2 42855  96.8887  67.8096 0007288 202.6712 157.4216 15.42971143169057
1 42855U 17042AG  20201.62678921  .00003551  00000-0  82390-4 0  9994
2 42855  96.8886  68.0549 0007315 201.6501 158.4440 15.42973046169096
1 42855U 17042AG  20201.88620002  .00003754  00000-0  87003-4 0  9990
2 42855  96.8885  68.3002 0007342 200.5549 159.5406 15.42975519169138
1 42855U 17042AG  20202.34016860  .00003503  00000-0  81299-4 0  9996
2 42855  96.8883  68.7295 0007401 198.7494 161.3483 15.42978124169206
1 42855U 17042AG  20202.85898853  .00003629  00000-0  84144-4 0  9993
2 42855  96.8882  69.2201 0007475 196.6701 163.4304 15.42982155169289
1 42855U 17042AG  20203.11839799  .00003653  00000-0  84667-4 0  9994
2 42855  96.8881  69.4654 0007506 195.6422 164.4596 15.42984230169321
1 42855U 17042AG  20203.37780740  .00003416  00000-0  79297-4 0  9993
2 42855  96.8880  69.7106 0007535 194.5577 165.5456 15.42985297169361
1 42855U 17042AG  20203.89662519  .00003438  00000-0  79787-4 0  9991
2 42855  96.8879  70.2012 0007596 192.4961 167.6101 15.42988872169444
1 42855U 17042AG  20204.35058977  .00003514  00000-0  81508-4 0  9999
2 42855  96.8877  70.6305 0007649 190.6764 169.4324 15.42991974169513
1 42855U 17042AG  20204.86940527  .00003708  00000-0  85895-4 0  9994
2 42855  96.8876  71.1212 0007718 188.6949 171.4167 15.42995915169599
1 42855U 17042AG  20205.58277444  .00003902  00000-0  90268-4 0  9991
2 42855  96.8875  71.7958 0007804 186.0764 174.0391 15.43001450169708
1 42855U 17042AG  20206.42584459  .00003801  00000-0  87965-4 0  9990
2 42855  96.8875  72.5930 0007916 182.7715 177.3492 15.43006708169833
1 42855U 17042AG  20206.87980326  .00004535  00000-0  10458-3 0  9999
2 42855  96.8875  73.0223 0007974 181.0723 179.0510 15.43012164169900
1 42855U 17042AG  20207.20405765  .00005850  00000-0  13434-3 0  9994
2 42855  96.8875  73.3290 0008019 179.9298 180.1954 15.43018834169951
1 42855U 17042AG  20207.85256595  .00005569  00000-0  12795-3 0  9996
2 42855  96.8876  73.9423 0008104 177.5977 182.5312 15.43024524170059
1 42855U 17042AG  20208.56592080  .00004879  00000-0  11229-3 0  9991
2 42855  96.8877  74.6169 0008204 174.9103 185.2231 15.43031848170167
1 42855U 17042AG  20208.89017169  .00004810  00000-0  11072-3 0  9998
2 42855  96.8877  74.9236 0008244 173.7422 186.3931 15.43035462170211
1 42855U 17042AG  20209.14957190  .00004166  00000-0  96117-4 0  9992
2 42855  96.8878  75.1690 0008277 172.8270 187.3099 15.43037470170257
1 42855U 17042AG  20209.34412190  .00004059  00000-0  93701-4 0  9997
2 42855  96.8878  75.3530 0008305 172.1200 188.0181 15.43039274170287
1 42855U 17042AG  20209.86292055  .00004300  00000-0  99125-4 0  9995
2 42855  96.8878  75.8437 0008367 170.3013 189.8399 15.43045116170369
1 42855U 17042AG  20210.51141718  .00004423  00000-0  10189-3 0  9996
2 42855  96.8879  76.4571 0008436 168.0580 192.0871 15.43051081170466
1 42855U 17042AG  20211.15991110  .00004606  00000-0  10602-3 0  9999
2 42855  96.8879  77.0705 0008521 165.7437 194.4054 15.43057369170567
1 42855U 17042AG  20211.87325200  .00004646  00000-0  10689-3 0  9998
2 42855  96.8879  77.7453 0008617 163.2319 196.9217 15.43063483170676
1 42855U 17042AG  20212.52174084  .00004666  00000-0  10733-3 0  9995
2 42855  96.8878  78.3587 0008686 161.1138 199.0435 15.43069494170777
1 42855U 17042AG  20212.84598436  .00004704  00000-0  10817-3 0  9997
2 42855  96.8878  78.6653 0008736 159.9863 200.1730 15.43072518170829
1 42855U 17042AG  20213.10537874  .00004716  00000-0  10842-3 0  9997
2 42855  96.8878  78.9106 0008765 159.0843 201.0767 15.43075000170869
1 42855U 17042AG  20213.55931774  .00004806  00000-0  11044-3 0  9998
2 42855  96.8876  79.3399 0008811 157.5098 202.6539 15.43079435170931
1 42855U 17042AG  20213.81871080  .00005362  00000-0  12299-3 0  9991
2 42855  96.8876  79.5852 0008847 156.6461 203.5192 15.43083212170977
1 42855U 17042AG  20214.20779983  .00004909  00000-0  11274-3 0  9992
2 42855  96.8875  79.9532 0008891 155.3953 204.7722 15.43085878171036
1 42855U 17042AG  20214.33749615  .00004850  00000-0  11140-3 0  9992
2 42855  96.8874  80.0759 0008901 154.9344 205.2339 15.43086744171055
1 42855U 17042AG  20214.85627938  .00005151  00000-0  11818-3 0  9999
2 42855  96.8872  80.5665 0008955 153.1903 206.9810 15.43092539171135
1 42855U 17042AG  20215.11567073  .00004781  00000-0  10983-3 0  9992
2 42855  96.8871  80.8118 0008997 152.3839 207.7890 15.43094072171170
1 42855U 17042AG  20215.56960453  .00004834  00000-0  11101-3 0  9992
2 42855  96.8869  81.2410 0009050 150.8530 209.3225 15.43098194171246
1 42855U 17042AG  20216.34777210  .00006116  00000-0  13989-3 0  9997
2 42855  96.8867  81.9770 0009142 148.2696 211.9106 15.43109202171369
1 42855U 17042AG  20216.54231340  .00006524  00000-0  14910-3 0  9996
2 42855  96.8866  82.1610 0009174 147.6490 212.5323 15.43111747171392
1 42855U 17042AG  20216.93139457  .00006889  00000-0  15730-3 0  9990
2 42855  96.8865  82.5289 0009212 146.3629 213.8207 15.43117247171453
1 42855U 17042AG  20217.51501344  .00007670  00000-0  17486-3 0  9992
2 42855  96.8863  83.0808 0009275 144.5052 215.6816 15.43127021171540
1 42855U 17042AG  20217.83924499  .00007107  00000-0  16214-3 0  9990
2 42855  96.8862  83.3874 0009310 143.4715 216.7171 15.43130335171592
1 42855U 17042AG  20218.09862927  .00006952  00000-0  15861-3 0  9990
2 42855  96.8861  83.6327 0009345 142.6700 217.5200 15.43134548171637
1 42855U 17042AG  20218.42285883  .00006351  00000-0  14505-3 0  9994
2 42855  96.8860  83.9393 0009364 141.6857 218.5059 15.43138078171685
1 42855U 17042AG  20218.87677907  .00005859  00000-0  13394-3 0  9992
2 42855  96.8859  84.3685 0009409 140.2897 219.9043 15.43143268171754
1 42855U 17042AG  20219.59007910  .00005411  00000-0  12380-3 0  9991
2 42855  96.8858  85.0430 0009477 138.0280 222.1697 15.43151186171866
1 42855U 17042AG  20220.56275493  .00005167  00000-0  11824-3 0  9993
2 42855  96.8857  85.9628 0009569 134.9986 225.2041 15.43162002172017
1 42855U 17042AG  20220.82213398  .00005343  00000-0  12221-3 0  9996
2 42855  96.8856  86.2081 0009590 134.1674 226.0365 15.43165077172050
1 42855U 17042AG  20221.53542405  .00005419  00000-0  12387-3 0  9996
2 42855  96.8857  86.8826 0009660 131.9611 228.2462 15.43173190172167
1 42855U 17042AG  20221.66511272  .00005397  00000-0  12338-3 0  9999
2 42855  96.8857  87.0053 0009669 131.5456 228.6624 15.43174666172189
1 42855U 17042AG  20222.57293015  .00005324  00000-0  12169-3 0  9994
2 42855  96.8858  87.8639 0009745 128.6678 231.5444 15.43184633172320
1 42855U 17042AG  20222.83230554  .00005334  00000-0  12189-3 0  9995
2 42855  96.8857  88.1092 0009767 127.8641 232.3493 15.43187212172364
1 42855U 17042AG  20223.41589851  .00005247  00000-0  11991-3 0  9990
2 42855  96.8859  88.6613 0009824 126.0881 234.1280 15.43193325172457
1 42855U 17042AG  20223.86980236  .00005465  00000-0  12479-3 0  9995
2 42855  96.8859  89.0906 0009848 124.6736 235.5443 15.43198707172529
1 42855U 17042AG  20224.06433211  .00005516  00000-0  12593-3 0  9998
2 42855  96.8859  89.2746 0009863 124.1085 236.1101 15.43201071172552
1 42855U 17042AG  20224.19401857  .00005092  00000-0  11640-3 0  9994
2 42855  96.8859  89.3973 0009873 123.7072 236.5120 15.43201613172576
